TITAN 4B R/B            
1 26474U 00047B   25299.46844808  .00006167  00000+0  39674-3 0  9994
2 26474  67.9909  57.5642 0043894 198.6438 161.3105 15.08246022372662
ENVISAT                 
1 27386U 02009A   25299.49342544  .00000227  00000+0  87447-4 0  9993
2 27386  98.3517 251.4515 0001328  85.8916  26.3887 14.38972774239870
IDEFIX & ARIANE 42P R/B 
1 27422U 02021B   25299.38391455  .00000464  00000+0  19322-3 0  9990
2 27422  98.5709 234.7086 0010907 219.2337 140.8056 14.30898103224819
AQUA                    
1 27424U 02022A   25299.53622490  .00001610  00000+0  33348-3 0  9994
2 27424  98.3962 259.6722 0001494  53.1435  64.6721 14.61638170249132
CZ-4B R/B               
1 27432U 02024C   25299.38495382  .00000077  00000+0  62429-4 0  9995
2 27432  98.9071 348.3046 0050851  45.2835 325.9408 14.14513678210259
MIDORI II (ADEOS-II)    
1 27597U 02056A   25299.38874970  .00000461  00000+0  19930-3 0  9991
2 27597  98.7553 252.1168 0001949  57.8611 302.2759 14.29156366191119
H-2A R/B                
1 27601U 02056E   25299.51067269  .00000438  00000+0  16855-3 0  9994
2 27601  98.2989 260.1672 0069765 200.5722 270.1690 14.33626193194881
CZ-4B R/B               
1 28059U 03049C   25299.48496471  .00000686  00000+0  16951-3 0  9994
2 28059  98.6754 284.2722 0047140 281.6935  77.8973 14.54841465167087
CZ-2C R/B               
1 28222U 04012C   25299.52179337  .00034965  00000+0  58800-3 0  9997
2 28222  97.7498 348.3803 0021050  84.2492 276.1158 15.51418995183390
SL-16 R/B               
1 28353U 04021B   25299.31409708 -.00000259  00000+0 -11014-3 0  9994
2 28353  70.9991 154.4892 0007381 252.6469 107.3846 14.14572587103832
CZ-4B R/B               
1 28415U 04035C   25299.04659816  .00009916  00000+0  37794-3 0  9995
2 28415  97.3670 330.0476 0035986  86.0097 274.5254 15.26281911159356
CZ-2C R/B               
1 28480U 04046B   25299.48665042  .00000231  00000+0  10101-3 0  9999
2 28480  98.1941 217.8129 0139218 191.2512 168.5548 14.26909974 89365
