CCSDS_OMM_VERS = 2.0
CREATION_DATE  = 
ORIGINATOR     = 

OBJECT_NAME    = TITAN 4B R/B
OBJECT_ID      = 2000-047B
CENTER_NAME    = EARTH
REF_FRAME      = TEME
TIME_SYSTEM    = UTC
MEAN_ELEMENT_THEORY = SGP/SGP4

EPOCH          = 2025-10-26T11:14:33.914112
MEAN_MOTION    = 15.08246022
ECCENTRICITY   = .0043894
INCLINATION    = 67.9909
RA_OF_ASC_NODE = 57.5642
ARG_OF_PERICENTER = 198.6438
MEAN_ANOMALY   = 161.3105

EPHEMERIS_TYPE = 0
CLASSIFICATION_TYPE = U
NORAD_CAT_ID   = 26474
ELEMENT_SET_NO = 999
REV_AT_EPOCH   = 37266
BSTAR          = .39674E-3
MEAN_MOTION_DOT = .6167E-4
MEAN_MOTION_DDOT = 0

CCSDS_OMM_VERS = 2.0
CREATION_DATE  = 
ORIGINATOR     = 

OBJECT_NAME    = ENVISAT
OBJECT_ID      = 2002-009A
CENTER_NAME    = EARTH
REF_FRAME      = TEME
TIME_SYSTEM    = UTC
MEAN_ELEMENT_THEORY = SGP/SGP4

EPOCH          = 2025-10-26T11:50:31.958016
MEAN_MOTION    = 14.38972774
ECCENTRICITY   = .0001328
INCLINATION    = 98.3517
RA_OF_ASC_NODE = 251.4515
ARG_OF_PERICENTER = 85.8916
MEAN_ANOMALY   = 26.3887

EPHEMERIS_TYPE = 0
CLASSIFICATION_TYPE = U
NORAD_CAT_ID   = 27386
ELEMENT_SET_NO = 999
REV_AT_EPOCH   = 23987
BSTAR          = .87447E-4
MEAN_MOTION_DOT = .227E-5
MEAN_MOTION_DDOT = 0

CCSDS_OMM_VERS = 2.0
CREATION_DATE  = 
ORIGINATOR     = 

OBJECT_NAME    = IDEFIX & ARIANE 42P R/B
OBJECT_ID      = 2002-021B
CENTER_NAME    = EARTH
REF_FRAME      = TEME
TIME_SYSTEM    = UTC
MEAN_ELEMENT_THEORY = SGP/SGP4

EPOCH          = 2025-10-26T09:12:50.217120
MEAN_MOTION    = 14.30898103
ECCENTRICITY   = .0010907
INCLINATION    = 98.5709
RA_OF_ASC_NODE = 234.7086
ARG_OF_PERICENTER = 219.2337
MEAN_ANOMALY   = 140.8056

EPHEMERIS_TYPE = 0
CLASSIFICATION_TYPE = U
NORAD_CAT_ID   = 27422
ELEMENT_SET_NO = 999
REV_AT_EPOCH   = 22481
BSTAR          = .19322E-3
MEAN_MOTION_DOT = .464E-5
MEAN_MOTION_DDOT = 0

CCSDS_OMM_VERS = 2.0
CREATION_DATE  = 
ORIGINATOR     = 

OBJECT_NAME    = AQUA
OBJECT_ID      = 2002-022A
CENTER_NAME    = EARTH
REF_FRAME      = TEME
TIME_SYSTEM    = UTC
MEAN_ELEMENT_THEORY = SGP/SGP4

EPOCH          = 2025-10-26T12:52:09.831360
MEAN_MOTION    = 14.61638170
ECCENTRICITY   = .0001494
INCLINATION    = 98.3962
RA_OF_ASC_NODE = 259.6722
ARG_OF_PERICENTER = 53.1435
MEAN_ANOMALY   = 64.6721

EPHEMERIS_TYPE = 0
CLASSIFICATION_TYPE = U
NORAD_CAT_ID   = 27424
ELEMENT_SET_NO = 999
REV_AT_EPOCH   = 24913
BSTAR          = .33348E-3
MEAN_MOTION_DOT = .161E-4
MEAN_MOTION_DDOT = 0

CCSDS_OMM_VERS = 2.0
CREATION_DATE  = 
ORIGINATOR     = 

OBJECT_NAME    = CZ-4B R/B
OBJECT_ID      = 2002-024C
CENTER_NAME    = EARTH
REF_FRAME      = TEME
TIME_SYSTEM    = UTC
MEAN_ELEMENT_THEORY = SGP/SGP4

EPOCH          = 2025-10-26T09:14:20.010048
MEAN_MOTION    = 14.14513678
ECCENTRICITY   = .0050851
INCLINATION    = 98.9071
RA_OF_ASC_NODE = 348.3046
ARG_OF_PERICENTER = 45.2835
MEAN_ANOMALY   = 325.9408

EPHEMERIS_TYPE = 0
CLASSIFICATION_TYPE = U
NORAD_CAT_ID   = 27432
ELEMENT_SET_NO = 999
REV_AT_EPOCH   = 21025
BSTAR          = .62429E-4
MEAN_MOTION_DOT = .77E-6
MEAN_MOTION_DDOT = 0

CCSDS_OMM_VERS = 2.0
CREATION_DATE  = 
ORIGINATOR     = 

OBJECT_NAME    = MIDORI II (ADEOS-II)
OBJECT_ID      = 2002-056A
CENTER_NAME    = EARTH
REF_FRAME      = TEME
TIME_SYSTEM    = UTC
MEAN_ELEMENT_THEORY = SGP/SGP4

EPOCH          = 2025-10-26T09:19:47.974080
MEAN_MOTION    = 14.29156366
ECCENTRICITY   = .0001949
INCLINATION    = 98.7553
RA_OF_ASC_NODE = 252.1168
ARG_OF_PERICENTER = 57.8611
MEAN_ANOMALY   = 302.2759

EPHEMERIS_TYPE = 0
CLASSIFICATION_TYPE = U
NORAD_CAT_ID   = 27597
ELEMENT_SET_NO = 999
REV_AT_EPOCH   = 19111
BSTAR          = .1993E-3
MEAN_MOTION_DOT = .461E-5
MEAN_MOTION_DDOT = 0

CCSDS_OMM_VERS = 2.0
CREATION_DATE  = 
ORIGINATOR     = 

OBJECT_NAME    = H-2A R/B
OBJECT_ID      = 2002-056E
CENTER_NAME    = EARTH
REF_FRAME      = TEME
TIME_SYSTEM    = UTC
MEAN_ELEMENT_THEORY = SGP/SGP4

EPOCH          = 2025-10-26T12:15:22.120416
MEAN_MOTION    = 14.33626193
ECCENTRICITY   = .0069765
INCLINATION    = 98.2989
RA_OF_ASC_NODE = 260.1672
ARG_OF_PERICENTER = 200.5722
MEAN_ANOMALY   = 270.1690

EPHEMERIS_TYPE = 0
CLASSIFICATION_TYPE = U
NORAD_CAT_ID   = 27601
ELEMENT_SET_NO = 999
REV_AT_EPOCH   = 19488
BSTAR          = .16855E-3
MEAN_MOTION_DOT = .438E-5
MEAN_MOTION_DDOT = 0

CCSDS_OMM_VERS = 2.0
CREATION_DATE  = 
ORIGINATOR     = 

OBJECT_NAME    = CZ-4B R/B
OBJECT_ID      = 2003-049C
CENTER_NAME    = EARTH
REF_FRAME      = TEME
TIME_SYSTEM    = UTC
MEAN_ELEMENT_THEORY = SGP/SGP4

EPOCH          = 2025-10-26T11:38:20.950944
MEAN_MOTION    = 14.54841465
ECCENTRICITY   = .004714
INCLINATION    = 98.6754
RA_OF_ASC_NODE = 284.2722
ARG_OF_PERICENTER = 281.6935
MEAN_ANOMALY   = 77.8973

EPHEMERIS_TYPE = 0
CLASSIFICATION_TYPE = U
NORAD_CAT_ID   = 28059
ELEMENT_SET_NO = 999
REV_AT_EPOCH   = 16708
BSTAR          = .16951E-3
MEAN_MOTION_DOT = .686E-5
MEAN_MOTION_DDOT = 0

CCSDS_OMM_VERS = 2.0
CREATION_DATE  = 
ORIGINATOR     = 

OBJECT_NAME    = CZ-2C R/B
OBJECT_ID      = 2004-012C
CENTER_NAME    = EARTH
REF_FRAME      = TEME
TIME_SYSTEM    = UTC
MEAN_ELEMENT_THEORY = SGP/SGP4

EPOCH          = 2025-10-26T12:31:22.947168
MEAN_MOTION    = 15.51418995
ECCENTRICITY   = .002105
INCLINATION    = 97.7498
RA_OF_ASC_NODE = 348.3803
ARG_OF_PERICENTER = 84.2492
MEAN_ANOMALY   = 276.1158

EPHEMERIS_TYPE = 0
CLASSIFICATION_TYPE = U
NORAD_CAT_ID   = 28222
ELEMENT_SET_NO = 999
REV_AT_EPOCH   = 18339
BSTAR          = .588E-3
MEAN_MOTION_DOT = .34965E-3
MEAN_MOTION_DDOT = 0

CCSDS_OMM_VERS = 2.0
CREATION_DATE  = 
ORIGINATOR     = 

OBJECT_NAME    = SL-16 R/B
OBJECT_ID      = 2004-021B
CENTER_NAME    = EARTH
REF_FRAME      = TEME
TIME_SYSTEM    = UTC
MEAN_ELEMENT_THEORY = SGP/SGP4

EPOCH          = 2025-10-26T07:32:17.987712
MEAN_MOTION    = 14.14572587
ECCENTRICITY   = .0007381
INCLINATION    = 70.9991
RA_OF_ASC_NODE = 154.4892
ARG_OF_PERICENTER = 252.6469
MEAN_ANOMALY   = 107.3846

EPHEMERIS_TYPE = 0
CLASSIFICATION_TYPE = U
NORAD_CAT_ID   = 28353
ELEMENT_SET_NO = 999
REV_AT_EPOCH   = 10383
BSTAR          = -.11014E-3
MEAN_MOTION_DOT = -.259E-5
MEAN_MOTION_DDOT = 0

CCSDS_OMM_VERS = 2.0
CREATION_DATE  = 
ORIGINATOR     = 

OBJECT_NAME    = CZ-4B R/B
OBJECT_ID      = 2004-035C
CENTER_NAME    = EARTH
REF_FRAME      = TEME
TIME_SYSTEM    = UTC
MEAN_ELEMENT_THEORY = SGP/SGP4

EPOCH          = 2025-10-26T01:07:06.081024
MEAN_MOTION    = 15.26281911
ECCENTRICITY   = .00359868
INCLINATION    = 97.3670
RA_OF_ASC_NODE = 330.0476
ARG_OF_PERICENTER = 86.0097
MEAN_ANOMALY   = 274.5254

EPHEMERIS_TYPE = 0
CLASSIFICATION_TYPE = U
NORAD_CAT_ID   = 28415
ELEMENT_SET_NO = 999
REV_AT_EPOCH   = 15935
BSTAR          = .37794401E-3
MEAN_MOTION_DOT = .9916E-4
MEAN_MOTION_DDOT = 0

CCSDS_OMM_VERS = 2.0
CREATION_DATE  = 
ORIGINATOR     = 

OBJECT_NAME    = CZ-2C R/B
OBJECT_ID      = 2004-046B
CENTER_NAME    = EARTH
REF_FRAME      = TEME
TIME_SYSTEM    = UTC
MEAN_ELEMENT_THEORY = SGP/SGP4

EPOCH          = 2025-10-26T11:40:46.596288
MEAN_MOTION    = 14.26909974
ECCENTRICITY   = .0139218
INCLINATION    = 98.1941
RA_OF_ASC_NODE = 217.8129
ARG_OF_PERICENTER = 191.2512
MEAN_ANOMALY   = 168.5548

EPHEMERIS_TYPE = 0
CLASSIFICATION_TYPE = U
NORAD_CAT_ID   = 28480
ELEMENT_SET_NO = 999
REV_AT_EPOCH   = 8936
BSTAR          = .10101E-3
MEAN_MOTION_DOT = .231E-5
MEAN_MOTION_DDOT = 0

